OBJECT_NAME,OBJECT_ID,EPOCH,MEAN_MOTION,ECCENTRICITY,INCLINATION,RA_OF_ASC_NODE,ARG_OF_PERICENTER,MEAN_ANOMALY,EPHEMERIS_TYPE,CLASSIFICATION_TYPE,NORAD_CAT_ID,ELEMENT_SET_NO,REV_AT_EPOCH,BSTAR,MEAN_MOTION_DOT,MEAN_MOTION_DDOT
LEMUR-2-CELIJO-SB-PK,2025-276DW,2026-06-05T10:17:07.768896,14.99826128,.0008713,97.5284,227.5913,161.2327,198.9219,0,U,66781,999,2086,.53215E-3,.6538E-4,0
LEMUR-2-FINNIAN,2025-276DX,2026-06-05T00:12:11.954016,15.00218347,.00083005,97.5250,227.3906,125.9633,234.2363,0,U,66782,999,1817,.6650809E-3,.8271E-4,0
LEMUR-2-STARLIGHT,2025-276DY,2026-06-05T11:42:53.415072,14.98912924,.0015221,97.5271,227.5253,161.9494,198.2273,0,U,66783,999,2844,.58673E-3,.7056E-4,0
LEMUR-2-TARTIFLETTE,2025-276DZ,2026-06-05T11:40:59.837088,14.98930264,.0013842,97.5272,227.5294,168.1094,192.0459,0,U,66784,999,2844,.70541E-3,.8497E-4,0
LEMUR-2-VUKASIN,2025-276EA,2026-06-05T10:10:21.637920,15.00227273,.0006187,97.5301,227.7376,152.0533,208.1025,0,U,66785,999,2838,.51801E-3,.6427E-4,0
LEMUR-2-HOTSPUR-TOM,2025-276EB,2026-06-05T00:15:59.522112,14.98800296,.0015058,97.5240,227.0560,165.6469,194.5185,0,U,66786,999,2830,.70399756E-3,.8454E-4,0
LEMUR-2-MYRA,2025-276EC,2026-06-05T10:54:06.462144,15.00080983,.0015187,97.5221,227.7217,180.5755,179.5454,0,U,66787,999,2845,.52847E-3,.6546E-4,0
LEMUR-2 FIKRETDENGIZ,2026-004A,2026-06-03T13:16:36.378048,14.88221873,.00088388,97.8015,153.3224,173.3369,186.7966,0,U,67363,999,2125,.51674204E-3,.4718E-4,0
TWILIGHT-1 OBJECT B,2026-004B,2026-06-05T10:55:55.667424,14.87660452,.0009119,97.8060,155.2148,158.7603,201.3994,0,U,67364,999,2154,.22621E-3,.2006E-4,0
LEMUR-2-MARIO-SOUSA,2026-004C,2026-06-04T05:03:30.778560,14.88405946,.00084766,97.7991,153.9664,171.6156,188.5204,0,U,67365,999,2136,.6120998E-3,.5625E-4,0
LEMUR-2-SONNENBLUME,2026-004E,2026-06-05T11:38:28.798656,14.88255227,.0008129,97.7984,155.2095,169.9945,190.1435,0,U,67367,999,2155,.3753E-3,.3414E-4,0
LEMUR-2-WOBLER,2026-004F,2026-06-05T06:40:50.951136,14.88430554,.0008608,97.8041,155.1164,159.5144,200.6420,0,U,67368,999,2152,.49365E-3,.4528E-4,0
LEMUR-2-GRAM-E-SUE,2026-004H,2026-06-05T06:27:00.874368,14.88416143,.0007128,97.7973,155.0109,170.7222,189.4128,0,U,67370,999,2152,.32525E-3,.2963E-4,0
LEMUR-2-KATIE,2026-004AA,2026-06-05T06:26:42.535104,14.89958900,.000454,97.8036,155.4316,117.7452,242.4227,0,U,67387,999,2153,.51014E-3,.4861E-4,0
LEMUR-2-HCS-BAZUS,2026-004AB,2026-06-05T11:15:31.906656,14.89955095,.0004209,97.8022,155.6123,112.6517,247.5146,0,U,67388,999,2156,.61048E-3,.5828E-4,0
